HORYU-4                 
1 41340U 16012D   20163.84837022  .00000408  00000-0  24170-4 0  9998
2 41340  31.0063   7.4817 0013684  93.3467 266.8734 15.01502130237037
E-ST@R-II               
1 41459U 16025D   20163.88230968  .00000701  00000-0  39707-4 0  9991
2 41459  98.1042 273.5814 0163860 230.0724 128.5994 15.06399717226603
AAUSAT 4                
1 41460U 16025E   20163.82913543  .00001940  00000-0  98448-4 0  9997
2 41460  98.1019 275.8337 0153159 219.0576 139.9508 15.08699091226793
BEESAT-4                
1 41619U 16040W   20163.71320426  .00001228  00000-0  53518-4 0  9998
2 41619  97.3194 223.3833 0010680 190.8233 169.2777 15.24003638208529
CANX-7                  
1 41788U 16059F   20163.81797578  .00007249  00000-0  99875-3 0  9996
2 41788  98.2515 251.5066 0021746 314.6100  45.3372 14.78378049198980
RAVAN                   
1 41849U 16067B   20163.80020955  .00000586  00000-0  54043-4 0  9996
2 41849  97.9349 273.5559 0006157 261.2864  98.7660 14.98568319195772
CELTEE 1                
1 41850U 16067C   20163.79020959  .00000603  00000-0  57394-4 0  9992
2 41850  97.9277 271.2901 0006949 266.7117  93.3310 14.97186854195659
OPTICUBE 04             
1 41851U 16067D   20163.78642180  .00000616  00000-0  58917-4 0  9994
2 41851  97.9265 270.9086 0007085 268.9145  91.1264 14.96927237195633
AEROCUBE 8D             
1 41852U 16067E   20163.53505709 -.00000243  00000-0 -15895-4 0  9999
2 41852  97.9271 270.4896 0008081 271.7491  88.2805 14.96912648195579
AEROCUBE 8C             
1 41853U 16067F   20163.76704701  .00000402  00000-0  40390-4 0  9991
2 41853  97.9259 270.6296 0008559 269.7245  90.2995 14.96871051195605
PROMETHEUS 2-1          
1 41854U 16067G   20163.80466684 -.00000212  00000-0 -13061-4 0  9998
2 41854  97.9277 270.9933 0008786 270.8314  89.1901 14.97196584195627
PROMETHEUS 2-3          
1 41855U 16067H   20163.80513700 -.00000240  00000-0 -15460-4 0  9997
2 41855  97.9280 271.0261 0008972 271.3095  88.7099 14.97206059195629
INS-1B                  
1 41954U 17008G   20163.30907028  .00001085  00000-0  46634-4 0  9991
2 41954  97.3544 227.8196 0008025 332.9550  27.1269 15.24773415184430
BGUSAT                  
1 41999U 17008BD  20163.70790587  .00001863  00000-0  71955-4 0  9992
2 41999  97.3658 232.3235 0007075 343.4205  16.6802 15.27492556184071
DIDO-2                  
1 42000U 17008BE  20163.79581491  .00000677  00000-0  30409-4 0  9998
2 42000  97.3551 228.8060 0007969 352.3444   7.7670 15.24470991183900
PEASSS                  
1 42015U 17008BV  20163.64624500  .00001014  00000-0  42693-4 0  9991
2 42015  97.3576 230.2476 0006016   1.0497 359.0753 15.25609695184462
AL-FARABI 1             
1 42016U 17008BW  20163.73615981  .00001287  00000-0  52145-4 0  9990
2 42016  97.3604 231.3709 0005832   0.3448 359.7794 15.26449248184659
NAYIF-1 (EO-88)         
1 42017U 17008BX  20163.12506846  .00001267  00000-0  51302-4 0  9995
2 42017  97.3599 230.7795 0005942   1.3438 358.7816 15.26487904184580
UCLSAT                  
1 42765U 17036A   20163.11466688  .00001032  00000-0  46033-4 0  9999
2 42765  97.3009 217.5267 0012683  54.4749 305.7670 15.23519792165023
LITUANICASAT-2          
1 42768U 17036D   20163.88193308  .00001715  00000-0  73346-4 0  9997
2 42768  97.3064 218.2368 0015705  41.5424 318.7004 15.24063223164996
AALTO-1                 
1 42775U 17036L   20163.86373312  .00000663  00000-0  32079-4 0  9997
2 42775  97.2984 216.0891 0015006  44.7544 315.4900 15.21838347164828
URSA MAIOR              
1 42776U 17036M   20163.72222280  .00000750  00000-0  35736-4 0  9990
2 42776  97.2996 216.2339 0014818  45.0486 315.1949 15.22020730164819
COMPASS 2               
1 42777U 17036N   20163.64107838  .00001502  00000-0  64923-4 0  9999
2 42777  97.3054 218.4236 0013382  44.3710 315.8598 15.23917454164910
DIAMOND RED             
1 42783U 17036U   20163.89488729  .00000871  00000-0  40100-4 0  9993
2 42783  97.3009 217.5599 0013354  53.4649 306.7816 15.22832202164907
PEGASUS                 
1 42784U 17036V   20163.07298496  .00000971  00000-0  43868-4 0  9999
2 42784  97.3014 217.1782 0013247  55.0648 305.1831 15.23208813164807
DIAMOND GREEN           
1 42785U 17036W   20163.43372185  .00000893  00000-0  41004-4 0  9991
2 42785  97.3011 217.1467 0013317  55.6099 304.6395 15.22831923164902
DIAMOND BLUE            
1 42786U 17036X   20162.64441185  .00000871  00000-0  40072-4 0  9991
2 42786  97.3012 216.3748 0013202  58.2451 302.0070 15.22830203164701
NUDTSAT                 
1 42787U 17036Y   20163.92306605  .00001599  00000-0  67754-4 0  9995
2 42787  97.3056 219.3872 0013043  43.5347 316.6919 15.24516645164857
SUCHAI                  
1 42788U 17036Z   20162.90252022  .00001193  00000-0  52399-4 0  9995
2 42788  97.3023 217.5945 0012779  54.3695 305.8730 15.23757154164889
SKCUBE                  
1 42789U 17036AA  20163.86738694  .00001074  00000-0  47667-4 0  9996
2 42789  97.3017 218.3884 0012597  51.6499 308.5869 15.23601790164948
VZLUSAT-1               
1 42790U 17036AB  20163.71509099  .00001439  00000-0  61301-4 0  9993
2 42790  97.3042 219.1803 0012064  50.5433 309.6870 15.24503271164976
ROBUSTA-1B              
1 42792U 17036AD  20163.88754773  .00001142  00000-0  50250-4 0  9996
2 42792  97.3019 218.6575 0012185  52.1932 308.0406 15.23789817164977
CICERO 6                
1 42793U 17036AE  20163.60938278  .00000797  00000-0  36611-4 0  9991
2 42793  97.2996 217.8018 0011583  55.5885 304.6445 15.23139580164970
D-SAT                   
1 42794U 17036AF  20163.60478516  .00000109  00000-0  14709-4 0  9997
2 42794  97.4935 196.5504 0126836  25.2609 335.4740 14.91279012161825
CORVUS BC2              
1 42846U 17042X   20163.67353823  .00000103  00000-0  15378-4 0  9999
2 42846  97.5239  47.4926 0008241 303.3540  56.6890 14.92105959158548
CORVUS BC1              
1 42847U 17042Y   20163.66962517  .00000024  00000-0  75946-5 0  9995
2 42847  97.5242  47.6573 0007875 302.7602  57.2858 14.92207162158547
MIRATA                  
1 43015U 17073C   20163.79198770  .00001225  00000-0  98777-4 0  9993
2 43015  97.7195  76.2223 0254830  67.1693 295.6215 14.79642215138383
MAKERSAT 0              
1 43016U 17073D   20163.75159777  .00000850  00000-0  70226-4 0  9996
2 43016  97.7231  76.3653 0257545  68.3430 294.4998 14.79210556138352
DELLINGR (RBLE)         
1 43021U 98067NJ  20163.13415778  .00013237  00000-0  10948-3 0  9999
2 43021  51.6364 312.1211 0001341  42.0657 318.0444 15.70647089145877
AEROCUBE 7B (OCSD B)    
1 43042U 17071F   20163.79885788  .00003204  00000-0  79285-4 0  9995
2 43042  51.6376  94.3073 0004892  32.8095 327.3194 15.43582681141502
AEROCUBE 7C (OCSD C)    
1 43043U 17071G   20163.86688326  .00003341  00000-0  82349-4 0  9990
2 43043  51.6377  94.0265 0005142  36.6550 323.4787 15.43557658141489
CHEFSAT                 
1 43044U 17071H   20163.87283565  .00006465  00000-0  12828-3 0  9992
2 43044  51.6383  79.3374 0004909  44.0306 316.1072 15.48336222141681
ASGARDIA 1              
1 43049U 17071N   20163.86042889  .00002938  00000-0  73420-4 0  9995
2 43049  51.6387  93.3062 0002967  54.5439 305.5824 15.43601075141497
ISARA                   
1 43050U 17071P   20163.78657293  .00006372  00000-0  13095-3 0  9996
2 43050  51.6365  82.3916 0002956  57.5254 302.6019 15.47335587141633
PROPCUBE 2 (FAUNA)      
1 43052U 17071R   20163.78354937  .00003110  00000-0  76053-4 0  9998
2 43052  51.6381  92.0606 0002906  52.0752 308.0496 15.44051699141494
CORVUS BC3              
1 43118U 18004H   20163.77790541  .00000671  00000-0  31205-4 0  9991
2 43118  97.4439 234.0970 0011975  75.4112 284.8452 15.23362800134138
MICROMAS-2A             
1 43131U 18004W   20163.74358613  .00001641  00000-0  68040-4 0  9998
2 43131  97.4487 235.7734 0010827  75.1160 285.1276 15.25279109134226
SPACEBEE-4              
1 43139U 18004AE  20163.71674672  .00002476  00000-0  97415-4 0  9994
2 43139  97.4517 236.9140 0010209  76.5112 283.7264 15.26562351134280
SPACEBEE-3              
1 43140U 18004AF  20163.73004458  .00003276  00000-0  12457-3 0  9998
2 43140  97.4532 237.6037 0009862  75.5298 284.7035 15.27457869134329
SPACEBEE-2              
1 43141U 18004AG  20163.25227463  .00003155  00000-0  11900-3 0  9997
2 43141  97.4547 237.3809 0009846  76.4764 283.7572 15.27757255134260
SPACEBEE-1              
1 43142U 18004AH  20163.74534557  .00003701  00000-0  13762-3 0  9992
2 43142  97.4548 238.1310 0009782  74.9067 285.3254 15.28116410134343
CICERO 7                
1 43143U 18004AJ  20163.74484386  .00001368  00000-0  57170-4 0  9996
2 43143  97.4467 235.9584 0009120  83.2450 276.9826 15.25317625134245
GOMX-4B                 
1 43196U 18015E   20163.31164695  .00000335  00000-0  16636-4 0  9992
2 43196  97.4375 291.8939 0020274 123.7299 236.5874 15.24258028130960
GOMX-4A                 
1 43197U 18015F   20163.81157910  .00000712  00000-0  31760-4 0  9994
2 43197  97.4367 292.4773 0020338 122.3262  33.8172 15.24502340131050
1KUNS-PF                
1 43466U 98067NP  20162.72983235  .07919004  12439-4  62785-3 0  9997
2 43466  51.6123 283.7308 0007318 301.8476 166.2040 16.39179723119460
UBAKUSAT                
1 43467U 98067NQ  20163.64275856  .00028064  00000-0  18595-3 0  9990
2 43467  51.6344 311.6353 0000747 344.5386  15.5591 15.75285662119196
CUBERRT                 
1 43546U 98067NU  20163.79231629  .00016202  00000-0  11807-3 0  9994
2 43546  51.6341 310.4205 0002824  66.5833 293.5463 15.73471849109355
TEMPEST-D               
1 43547U 98067NV  20163.20737337  .00005889  00000-0  70668-4 0  9998
2 43547  51.6374 343.4095 0004927  39.1739 320.9611 15.62516440108547
RAINCUBE                
1 43548U 98067NW  20163.80518338  .00025892  00000-0  18094-3 0  9993
2 43548  51.6335 318.7238 0003043  66.3868 293.7450 15.74097406109371
